{"type":"Feature","properties":{"MUN":"ABSECON CITY","COUNTY":"ATLANTIC","MUN_LABEL":"Absecon City","MUN_TYPE":"City","NAME":"Absecon","GNIS_NAME":"City of Absecon"},"geometry":{"type":"Polygon","coordinates":[[[-74.4601181,39.4241574],[-74.4611805,39.4142906],[-74.4649215,39.4120957],[-74.4704489,39.4088035],[-74.4781072,39.4041999],[-74.4817509,39.4019962],[-74.4829152,39.401292],[-74.488249,39.3980656],[-74.4883205,39.3980111],[-74.4883905,39.3979554],[-74.4884589,39.3978985],[-74.4885258,39.3978405],[-74.488591,39.3977815],[-74.4886546,39.3977213],[-74.4887165,39.3976602],[-74.4887767,39.397598],[-74.4888351,39.3975349],[-74.4888918,39.3974708],[-74.4889468,39.3974058],[-74.4889999,39.3973399],[-74.4890512,39.3972731],[-74.4891006,39.3972055],[-74.4891481,39.3971371],[-74.4891938,39.397068],[-74.4892375,39.3969981],[-74.4892793,39.3969275],[-74.4893192,39.3968562],[-74.489357,39.3967843],[-74.4893929,39.3967117],[-74.4894267,39.3966386],[-74.4894585,39.396565],[-74.4894883,39.3964908],[-74.4895161,39.3964162],[-74.4895417,39.3963411],[-74.4895653,39.3962657],[-74.4895868,39.3961898],[-74.4896062,39.3961137],[-74.4896235,39.3960372],[-74.4896387,39.3959604],[-74.4896517,39.3958834],[-74.4896626,39.3958062],[-74.4896714,39.3957289],[-74.4896781,39.3956514],[-74.4896826,39.3955739],[-74.4896849,39.3954962],[-74.4896852,39.3954186],[-74.4896832,39.395341],[-74.4896792,39.3952634],[-74.489673,39.3951859],[-74.4896646,39.3951085],[-74.4896541,39.3950313],[-74.4896415,39.3949543],[-74.4896268,39.3948775],[-74.4896099,39.3948009],[-74.489591,39.3947247],[-74.4895699,39.3946488],[-74.4895468,39.3945732],[-74.4895215,39.3944981],[-74.4894942,39.3944233],[-74.4894649,39.3943491],[-74.4894335,39.3942753],[-74.4893264,39.3940633],[-74.4892702,39.3939387],[-74.4892096,39.3938183],[-74.4891332,39.3936841],[-74.4890254,39.3935045],[-74.4889692,39.3934243],[-74.4888951,39.3932421],[-74.4888749,39.3931322],[-74.4888636,39.3930154],[-74.4888586,39.3929003],[-74.4888569,39.392862],[-74.488848,39.3926562],[-74.488866,39.3924505],[-74.4888705,39.3922552],[-74.4888885,39.3922029],[-74.4889172,39.3921381],[-74.4889537,39.3920556],[-74.488977,39.3920322],[-74.4891786,39.391829],[-74.4892166,39.3917906],[-74.4893883,39.3916636],[-74.4894346,39.3916294],[-74.4895964,39.3914969],[-74.4898282,39.3913382],[-74.4899695,39.3912415],[-74.4901043,39.3911473],[-74.4902324,39.3910392],[-74.490329,39.3909338],[-74.4903574,39.3908875],[-74.4904212,39.3907838],[-74.4905133,39.3905894],[-74.490526,39.3905594],[-74.4905981,39.3903885],[-74.4906167,39.3903445],[-74.4906574,39.3902428],[-74.4906887,39.3901649],[-74.4907145,39.3900786],[-74.4907407,39.3899913],[-74.4907448,39.3899775],[-74.4907696,39.3898798],[-74.4908235,39.3897962],[-74.4908358,39.3897835],[-74.4907464,39.3896984],[-74.4906516,39.3896133],[-74.4905182,39.3895156],[-74.4904812,39.3894845],[-74.4904234,39.3894454],[-74.4903686,39.3894167],[-74.4902678,39.3893718],[-74.4902041,39.3893408],[-74.4901493,39.3893028],[-74.4900945,39.3892729],[-74.4900085,39.3892373],[-74.4899063,39.3892005],[-74.4898337,39.389174],[-74.4897713,39.3891575],[-74.4897685,39.3891568],[-74.4897226,39.3891545],[-74.489604,39.3891361],[-74.4894914,39.3891177],[-74.4893714,39.3890975],[-74.4892558,39.3890768],[-74.4891698,39.3890636],[-74.4891017,39.3890573],[-74.4890128,39.3890538],[-74.4889286,39.3890494],[-74.4889128,39.3890486],[-74.4887757,39.3890452],[-74.488466,39.38904],[-74.4883682,39.3890405],[-74.4883238,39.3890382],[-74.4882786,39.3890325],[-74.4882341,39.3890238],[-74.4881193,39.3890002],[-74.4880652,39.3889841],[-74.4880185,39.3889692],[-74.4879748,39.3889606],[-74.48795,39.3889598],[-74.4879163,39.3889588],[-74.48788,39.3889565],[-74.4878526,39.3889514],[-74.4878311,39.3889421],[-74.4877555,39.3889151],[-74.4876829,39.3888824],[-74.4876399,39.3888611],[-74.4875836,39.3888415],[-74.4875169,39.3888237],[-74.4874651,39.388803],[-74.4873977,39.3887633],[-74.4872992,39.3886943],[-74.4872636,39.3886661],[-74.4872177,39.3886236],[-74.4871814,39.3885902],[-74.4871369,39.38855],[-74.4871029,39.3885161],[-74.4870784,39.3884954],[-74.4870766,39.3884941],[-74.4870517,39.3884752],[-74.4870058,39.3884436],[-74.4869636,39.3884252],[-74.4869258,39.388412],[-74.4868628,39.3883907],[-74.4868058,39.3883648],[-74.486765,39.3883389],[-74.4867258,39.3883039],[-74.4866762,39.3882619],[-74.486645,39.3882314],[-74.4866287,39.3882056],[-74.4865932,39.388155],[-74.4865739,39.3881222],[-74.486548,39.3880728],[-74.486528,39.3880296],[-74.4864888,39.3879181],[-74.4864703,39.3878635],[-74.4864429,39.3877629],[-74.4864384,39.3877278],[-74.4864377,39.3877111],[-74.4864273,39.387614],[-74.4864162,39.3875582],[-74.4864014,39.3875099],[-74.4863823,39.3874492],[-74.4863688,39.3874064],[-74.4863622,39.3873512],[-74.4863548,39.3872569],[-74.4863548,39.3872213],[-74.4863585,39.3871994],[-74.4863793,39.3871305],[-74.4863919,39.3870948],[-74.4863978,39.3870787],[-74.4864,39.3870546],[-74.4864001,39.387],[-74.4863904,39.3869442],[-74.48638,39.386889],[-74.4863741,39.3868562],[-74.4863734,39.3868073],[-74.4863845,39.3867539],[-74.4863957,39.3867056],[-74.4864142,39.3866561],[-74.4864194,39.3866085],[-74.4864298,39.3865734],[-74.4864453,39.3865348],[-74.4864594,39.386509],[-74.486472,39.3864872],[-74.4864853,39.3864716],[-74.4865446,39.3864199],[-74.4866068,39.3863739],[-74.4866461,39.3863457],[-74.4867047,39.3862997],[-74.4867395,39.3862762],[-74.486804,39.3862273],[-74.486841,39.3861986],[-74.4868788,39.3861785],[-74.4869151,39.3861606],[-74.4869603,39.386144],[-74.4870455,39.3861055],[-74.4871366,39.3860647],[-74.4871833,39.3860474],[-74.4872619,39.3860152],[-74.4873085,39.3860049],[-74.4873426,39.3859986],[-74.4873804,39.385998],[-74.4874189,39.3859974],[-74.4874523,39.3859905],[-74.4874893,39.3859779],[-74.487534,39.3859572],[-74.4875538,39.385948],[-74.4875901,39.3859302],[-74.4876294,39.3859174],[-74.4876345,39.3859158],[-74.4876775,39.385906],[-74.4877434,39.3859072],[-74.4877886,39.3859055],[-74.4878501,39.3859084],[-74.4878849,39.3859124],[-74.4879027,39.3859181],[-74.4879279,39.3859302],[-74.4879546,39.3859469],[-74.4880064,39.3859728],[-74.4880412,39.38599],[-74.4880701,39.3859963],[-74.4880916,39.3859981],[-74.4881153,39.3859981],[-74.4881383,39.3859958],[-74.4881553,39.3859935],[-74.4881746,39.3859877],[-74.4882142,39.3859622],[-74.4882663,39.3859285],[-74.488295,39.38591],[-74.4883243,39.3858912],[-74.4883872,39.3858516],[-74.4884048,39.3858405],[-74.4884464,39.3858679],[-74.488589,39.3859596],[-74.4889161,39.3861699],[-74.4892304,39.3863721],[-74.4899009,39.386834],[-74.4900024,39.386904],[-74.4901265,39.3869939],[-74.4906851,39.3874061],[-74.4908182,39.3875043],[-74.4915944,39.3881186],[-74.4917862,39.3882808],[-74.4923029,39.3887179],[-74.4923039,39.3887166],[-74.4923287,39.3886884],[-74.4923332,39.3886927],[-74.4927411,39.3890806],[-74.4931382,39.3894822],[-74.4935197,39.3898927],[-74.4936026,39.3899881],[-74.4938129,39.39023],[-74.4940199,39.3905446],[-74.4943772,39.3910193],[-74.4944058,39.3910604],[-74.4944941,39.3911871],[-74.4947139,39.3915028],[-74.4948271,39.391679],[-74.4950299,39.3919948],[-74.4953247,39.3924946],[-74.4955981,39.3930017],[-74.4958497,39.3935155],[-74.4959073,39.393646],[-74.4960234,39.3939092],[-74.4962143,39.3943782],[-74.4962864,39.3945612],[-74.496492,39.3951608],[-74.4966331,39.3956269],[-74.4967722,39.3961659],[-74.4968882,39.3967082],[-74.496981,39.3972531],[-74.4970505,39.3978001],[-74.4970627,39.398119],[-74.4970624,39.3981595],[-74.4970166,39.3989134],[-74.4970125,39.3993203],[-74.4970043,39.3996101],[-74.4970137,39.3998522],[-74.4970211,39.4000944],[-74.4970265,39.4003365],[-74.4970299,39.4005787],[-74.4970312,39.4008209],[-74.4970305,39.4010631],[-74.4970278,39.4013053],[-74.4969378,39.4058362],[-74.4969134,39.4081566],[-74.4968775,39.408143],[-74.4968277,39.4123171],[-74.4958337,39.414212],[-74.49584,39.4142137],[-74.4980928,39.4148001],[-74.4991108,39.4131716],[-74.4996262,39.4133598],[-74.4999316,39.4134713],[-74.5007678,39.4137929],[-74.5014284,39.4140469],[-74.5019059,39.4142284],[-74.5031098,39.4146859],[-74.503146,39.4146263],[-74.5033448,39.4143211],[-74.5033919,39.4142451],[-74.5038335,39.4135334],[-74.503953,39.4135451],[-74.5041688,39.4135702],[-74.5047185,39.4136378],[-74.5047251,39.4136385],[-74.50523,39.4136987],[-74.5056688,39.4137528],[-74.5058734,39.4137792],[-74.5060063,39.4137956],[-74.5061029,39.4138143],[-74.5061874,39.4138354],[-74.5063082,39.4138728],[-74.5065226,39.4139384],[-74.5067784,39.4140188],[-74.5069816,39.4140819],[-74.5071408,39.414125],[-74.5072857,39.4141641],[-74.5074701,39.4142077],[-74.5076431,39.4142446],[-74.5078441,39.4142803],[-74.5080386,39.4143082],[-74.5081878,39.4143289],[-74.5082937,39.4143406],[-74.508896,39.414409],[-74.509381,39.4144602],[-74.5097837,39.4145073],[-74.5104782,39.4145893],[-74.5113086,39.4146876],[-74.5116559,39.4147273],[-74.512133,39.4147835],[-74.5123712,39.4148145],[-74.5125104,39.4148327],[-74.5128366,39.4148959],[-74.5132442,39.4149731],[-74.513664,39.4150667],[-74.5140082,39.4151534],[-74.5141743,39.4152002],[-74.5145789,39.4153243],[-74.5150289,39.4154741],[-74.5160505,39.4158225],[-74.5162579,39.4158932],[-74.5170947,39.4161667],[-74.5172819,39.416226],[-74.5181147,39.4165058],[-74.5185968,39.4166707],[-74.5189742,39.4167999],[-74.519575,39.4170046],[-74.5195977,39.4170124],[-74.5197008,39.4170511],[-74.5197849,39.4170888],[-74.5197866,39.4170897],[-74.519925,39.4171639],[-74.5200572,39.4172494],[-74.5201596,39.41733],[-74.5202517,39.4174151],[-74.520738,39.4179763],[-74.5208745,39.4181364],[-74.5213459,39.4186839],[-74.5216853,39.4190801],[-74.5217883,39.4192003],[-74.5217955,39.4192087],[-74.5218383,39.4192587],[-74.5222312,39.4197142],[-74.5223631,39.4198708],[-74.522724,39.4202887],[-74.5228982,39.4204903],[-74.523145,39.420776],[-74.5234818,39.4211692],[-74.5235911,39.4212947],[-74.5238813,39.4216279],[-74.5240952,39.4218808],[-74.5307484,39.425894],[-74.5313776,39.4262735],[-74.529062,39.4289324],[-74.5265053,39.4312142],[-74.5235193,39.4344263],[-74.5187235,39.4390424],[-74.5181837,39.4395648],[-74.5156171,39.4420494],[-74.5155066,39.442157],[-74.5150846,39.4425737],[-74.5149734,39.4426806],[-74.5130496,39.4445578],[-74.5125278,39.445085],[-74.511392,39.4462417],[-74.5081332,39.4494941],[-74.5072833,39.4503344],[-74.5070313,39.450179],[-74.5044902,39.4485547],[-74.5043499,39.4484654],[-74.5020372,39.4470429],[-74.5000996,39.4457518],[-74.4997855,39.4455422],[-74.4910007,39.4399658],[-74.4894956,39.4390901],[-74.488997,39.4387885],[-74.4878976,39.4381533],[-74.4877064,39.4380448],[-74.487193,39.4377506],[-74.4844985,39.4362454],[-74.4844119,39.4361292],[-74.4831614,39.4358385],[-74.4792142,39.434921],[-74.4601181,39.4241574]]]}}
